CCSDS_OMM_VERS = 2.0
CREATION_DATE  = 
ORIGINATOR     = 

OBJECT_NAME    = SL-14 R/B
OBJECT_ID      = 1991-042B
CENTER_NAME    = EARTH
REF_FRAME      = TEME
TIME_SYSTEM    = UTC
MEAN_ELEMENT_THEORY = SGP/SGP4

EPOCH          = 2025-12-22T20:15:16.718400
MEAN_MOTION    = 14.81747517
ECCENTRICITY   = .00182342
INCLINATION    = 82.4935
RA_OF_ASC_NODE = 292.2484
ARG_OF_PERICENTER = 130.0404
MEAN_ANOMALY   = 230.2413

EPHEMERIS_TYPE = 0
CLASSIFICATION_TYPE = U
NORAD_CAT_ID   = 21423
ELEMENT_SET_NO = 999
REV_AT_EPOCH   = 84169
BSTAR          = .49056861E-4
MEAN_MOTION_DOT = .411E-5
MEAN_MOTION_DDOT = 0

CCSDS_OMM_VERS = 2.0
CREATION_DATE  = 
ORIGINATOR     = 

OBJECT_NAME    = ERS-1
OBJECT_ID      = 1991-050A
CENTER_NAME    = EARTH
REF_FRAME      = TEME
TIME_SYSTEM    = UTC
MEAN_ELEMENT_THEORY = SGP/SGP4

EPOCH          = 2025-12-22T22:56:01.705056
MEAN_MOTION    = 14.39372207
ECCENTRICITY   = .00329635
INCLINATION    = 98.7900
RA_OF_ASC_NODE = 8.2657
ARG_OF_PERICENTER = 70.6292
MEAN_ANOMALY   = 289.8454

EPHEMERIS_TYPE = 0
CLASSIFICATION_TYPE = U
NORAD_CAT_ID   = 21574
ELEMENT_SET_NO = 999
REV_AT_EPOCH   = 80469
BSTAR          = .10954439E-3
MEAN_MOTION_DOT = .296E-5
MEAN_MOTION_DDOT = 0

CCSDS_OMM_VERS = 2.0
CREATION_DATE  = 
ORIGINATOR     = 

OBJECT_NAME    = ARIANE 40 R/B
OBJECT_ID      = 1991-050F
CENTER_NAME    = EARTH
REF_FRAME      = TEME
TIME_SYSTEM    = UTC
MEAN_ELEMENT_THEORY = SGP/SGP4

EPOCH          = 2025-12-23T01:12:15.666048
MEAN_MOTION    = 14.42821291
ECCENTRICITY   = .0002185
INCLINATION    = 98.2150
RA_OF_ASC_NODE = 47.1081
ARG_OF_PERICENTER = 323.4126
MEAN_ANOMALY   = 36.6915

EPHEMERIS_TYPE = 0
CLASSIFICATION_TYPE = U
NORAD_CAT_ID   = 21610
ELEMENT_SET_NO = 999
REV_AT_EPOCH   = 80794
BSTAR          = .10690839E-3
MEAN_MOTION_DOT = .315E-5
MEAN_MOTION_DDOT = 0

CCSDS_OMM_VERS = 2.0
CREATION_DATE  = 
ORIGINATOR     = 

OBJECT_NAME    = INTERCOSMOS 25
OBJECT_ID      = 1991-086A
CENTER_NAME    = EARTH
REF_FRAME      = TEME
TIME_SYSTEM    = UTC
MEAN_ELEMENT_THEORY = SGP/SGP4

EPOCH          = 2025-12-23T00:54:46.408896
MEAN_MOTION    = 12.11767396
ECCENTRICITY   = .14863575
INCLINATION    = 82.6076
RA_OF_ASC_NODE = 356.3458
ARG_OF_PERICENTER = 282.1910
MEAN_ANOMALY   = 61.7036

EPHEMERIS_TYPE = 0
CLASSIFICATION_TYPE = U
NORAD_CAT_ID   = 21819
ELEMENT_SET_NO = 999
REV_AT_EPOCH   = 48740
BSTAR          = .41900206E-3
MEAN_MOTION_DOT = .2104E-4
MEAN_MOTION_DDOT = 0

CCSDS_OMM_VERS = 2.0
CREATION_DATE  = 
ORIGINATOR     = 

OBJECT_NAME    = SL-8 R/B
OBJECT_ID      = 1992-008B
CENTER_NAME    = EARTH
REF_FRAME      = TEME
TIME_SYSTEM    = UTC
MEAN_ELEMENT_THEORY = SGP/SGP4

EPOCH          = 2025-12-23T00:08:08.522016
MEAN_MOTION    = 13.75961252
ECCENTRICITY   = .00345354
INCLINATION    = 82.9271
RA_OF_ASC_NODE = 324.8101
ARG_OF_PERICENTER = 351.3172
MEAN_ANOMALY   = 71.9257

EPHEMERIS_TYPE = 0
CLASSIFICATION_TYPE = U
NORAD_CAT_ID   = 21876
ELEMENT_SET_NO = 999
REV_AT_EPOCH   = 69887
BSTAR          = .10877722E-3
MEAN_MOTION_DOT = .121E-5
MEAN_MOTION_DDOT = 0

CCSDS_OMM_VERS = 2.0
CREATION_DATE  = 
ORIGINATOR     = 

OBJECT_NAME    = SL-8 R/B
OBJECT_ID      = 1992-020B
CENTER_NAME    = EARTH
REF_FRAME      = TEME
TIME_SYSTEM    = UTC
MEAN_ELEMENT_THEORY = SGP/SGP4

EPOCH          = 2025-12-23T01:02:18.241152
MEAN_MOTION    = 13.75529714
ECCENTRICITY   = .00295576
INCLINATION    = 82.9295
RA_OF_ASC_NODE = 210.6663
ARG_OF_PERICENTER = 149.6361
MEAN_ANOMALY   = 3.6884

EPHEMERIS_TYPE = 0
CLASSIFICATION_TYPE = U
NORAD_CAT_ID   = 21938
ELEMENT_SET_NO = 999
REV_AT_EPOCH   = 69059
BSTAR          = .12724169E-3
MEAN_MOTION_DOT = .138E-5
MEAN_MOTION_DDOT = 0

CCSDS_OMM_VERS = 2.0
CREATION_DATE  = 
ORIGINATOR     = 

OBJECT_NAME    = USA 81
OBJECT_ID      = 1992-023A
CENTER_NAME    = EARTH
REF_FRAME      = TEME
TIME_SYSTEM    = UTC
MEAN_ELEMENT_THEORY = SGP/SGP4

EPOCH          = 2025-12-23T00:34:30.150912
MEAN_MOTION    = 14.32330504
ECCENTRICITY   = .00010973
INCLINATION    = 85.0079
RA_OF_ASC_NODE = 175.6447
ARG_OF_PERICENTER = 82.8308
MEAN_ANOMALY   = 277.3009

EPHEMERIS_TYPE = 0
CLASSIFICATION_TYPE = U
NORAD_CAT_ID   = 21949
ELEMENT_SET_NO = 999
REV_AT_EPOCH   = 8381
BSTAR          = .60739446E-4
MEAN_MOTION_DOT = .184E-5
MEAN_MOTION_DDOT = 0

CCSDS_OMM_VERS = 2.0
CREATION_DATE  = 
ORIGINATOR     = 

OBJECT_NAME    = COSMOS 2219
OBJECT_ID      = 1992-076A
CENTER_NAME    = EARTH
REF_FRAME      = TEME
TIME_SYSTEM    = UTC
MEAN_ELEMENT_THEORY = SGP/SGP4

EPOCH          = 2025-12-22T21:51:57.896928
MEAN_MOTION    = 14.14066164
ECCENTRICITY   = .0019289
INCLINATION    = 71.0575
RA_OF_ASC_NODE = 178.5696
ARG_OF_PERICENTER = 312.9765
MEAN_ANOMALY   = 46.9740

EPHEMERIS_TYPE = 0
CLASSIFICATION_TYPE = U
NORAD_CAT_ID   = 22219
ELEMENT_SET_NO = 999
REV_AT_EPOCH   = 70752
BSTAR          = .17099E-3
MEAN_MOTION_DOT = .279E-5
MEAN_MOTION_DDOT = 0

CCSDS_OMM_VERS = 2.0
CREATION_DATE  = 
ORIGINATOR     = 

OBJECT_NAME    = SL-16 R/B
OBJECT_ID      = 1992-076B
CENTER_NAME    = EARTH
REF_FRAME      = TEME
TIME_SYSTEM    = UTC
MEAN_ELEMENT_THEORY = SGP/SGP4

EPOCH          = 2025-12-23T05:48:33.081984
MEAN_MOTION    = 14.16844820
ECCENTRICITY   = .00142605
INCLINATION    = 71.0009
RA_OF_ASC_NODE = 349.4085
ARG_OF_PERICENTER = 220.0033
MEAN_ANOMALY   = 228.5556

EPHEMERIS_TYPE = 0
CLASSIFICATION_TYPE = U
NORAD_CAT_ID   = 22220
ELEMENT_SET_NO = 999
REV_AT_EPOCH   = 71100
BSTAR          = .10171228E-3
MEAN_MOTION_DOT = .156E-5
MEAN_MOTION_DDOT = 0

CCSDS_OMM_VERS = 2.0
CREATION_DATE  = 
ORIGINATOR     = 

OBJECT_NAME    = COSMOS 2221
OBJECT_ID      = 1992-080A
CENTER_NAME    = EARTH
REF_FRAME      = TEME
TIME_SYSTEM    = UTC
MEAN_ELEMENT_THEORY = SGP/SGP4

EPOCH          = 2025-12-23T01:16:21.200160
MEAN_MOTION    = 14.95798710
ECCENTRICITY   = .00162908
INCLINATION    = 82.5038
RA_OF_ASC_NODE = 352.4532
ARG_OF_PERICENTER = 90.1000
MEAN_ANOMALY   = 270.2088

EPHEMERIS_TYPE = 0
CLASSIFICATION_TYPE = U
NORAD_CAT_ID   = 22236
ELEMENT_SET_NO = 999
REV_AT_EPOCH   = 76933
BSTAR          = .16918787E-3
MEAN_MOTION_DOT = .1918E-4
MEAN_MOTION_DDOT = 0

CCSDS_OMM_VERS = 2.0
CREATION_DATE  = 
ORIGINATOR     = 

OBJECT_NAME    = SL-16 R/B
OBJECT_ID      = 1992-093B
CENTER_NAME    = EARTH
REF_FRAME      = TEME
TIME_SYSTEM    = UTC
MEAN_ELEMENT_THEORY = SGP/SGP4

EPOCH          = 2025-12-23T04:52:52.489056
MEAN_MOTION    = 14.15435222
ECCENTRICITY   = .00024685
INCLINATION    = 71.0207
RA_OF_ASC_NODE = 164.8305
ARG_OF_PERICENTER = 37.0521
MEAN_ANOMALY   = 323.0772

EPHEMERIS_TYPE = 0
CLASSIFICATION_TYPE = U
NORAD_CAT_ID   = 22285
ELEMENT_SET_NO = 999
REV_AT_EPOCH   = 70233
BSTAR          = .23109297E-4
MEAN_MOTION_DOT = -.2E-7
MEAN_MOTION_DDOT = 0

CCSDS_OMM_VERS = 2.0
CREATION_DATE  = 
ORIGINATOR     = 

OBJECT_NAME    = COSMOS 2228
OBJECT_ID      = 1992-094A
CENTER_NAME    = EARTH
REF_FRAME      = TEME
TIME_SYSTEM    = UTC
MEAN_ELEMENT_THEORY = SGP/SGP4

EPOCH          = 2025-12-23T04:28:12.085536
MEAN_MOTION    = 14.96774914
ECCENTRICITY   = .00173601
INCLINATION    = 82.5191
RA_OF_ASC_NODE = 310.5383
ARG_OF_PERICENTER = 194.0110
MEAN_ANOMALY   = 166.0633

EPHEMERIS_TYPE = 0
CLASSIFICATION_TYPE = U
NORAD_CAT_ID   = 22286
ELEMENT_SET_NO = 999
REV_AT_EPOCH   = 76461
BSTAR          = .17890859E-3
MEAN_MOTION_DOT = .2078E-4
MEAN_MOTION_DDOT = 0

